{"type": "FeatureCollection", "features": [ {"type": "Feature", "properties": {"norad_id": 38755, "name": "SPOT 6", "group": "resource", "lat": -51.768702777714545, "lon": 53.18318060651062, "alt_km": 705.3297421616762, "timestamp": "2025-12-03T17:47:50.369005+00:00", "meta": {"OBJECT_NAME": "SPOT 6", "OBJECT_ID": "2012-047A", "EPOCH": "2025-12-03T11:27:07.631424", "MEAN_MOTION": 14.58588774, "ECCENTRICITY": 0.0001043, "INCLINATION": 98.1585, "RA_OF_ASC_NODE": 42.4317, "ARG_OF_PERICENTER": 100.1301, "MEAN_ANOMALY": 260.0016, "EPHEMERIS_TYPE": 0, "CLASSIFICATION_TYPE": "U", "NORAD_CAT_ID": 38755, "ELEMENT_SET_NO": 999, "REV_AT_EPOCH": 70452, "BSTAR": 0.00014969, "MEAN_MOTION_DOT": 6.51e-06, "MEAN_MOTION_DDOT": 0}, "tle": {"line1": "1 38755U 12047A   25337.47717166  .00000651  00000+0  14969-3 0  9994", "line2": "2 38755  98.1585  42.4317 0001043 100.1301 260.0016 14.58588774704521"}}, "geometry": {"type": "Point", "coordinates": [53.18318060651062, -51.768702777714545]}}, {"type": "Feature", "properties": {"norad_id": 39019, "name": "PLEIADES 1B", "group": "resource", "lat": -27.55761797779423, "lon": -133.77019802904428, "alt_km": 704.135583777108, "timestamp": "2025-12-03T17:47:50.369015+00:00", "meta": {"OBJECT_NAME": "PLEIADES 1B", "OBJECT_ID": "2012-068A", "EPOCH": "2025-12-03T11:54:30.428928", "MEAN_MOTION": 14.58538011, "ECCENTRICITY": 0.0001254, "INCLINATION": 98.1807, "RA_OF_ASC_NODE": 50.2935, "ARG_OF_PERICENTER": 87.4904, "MEAN_ANOMALY": 272.6439, "EPHEMERIS_TYPE": 0, "CLASSIFICATION_TYPE": "U", "NORAD_CAT_ID": 39019, "ELEMENT_SET_NO": 999, "REV_AT_EPOCH": 69232, "BSTAR": 0.00015103, "MEAN_MOTION_DOT": 6.56e-06, "MEAN_MOTION_DDOT": 0}, "tle": {"line1": "1 39019U 12068A   25337.49618552  .00000656  00000+0  15103-3 0  9998", "line2": "2 39019  98.1807  50.2935 0001254  87.4904 272.6439 14.58538011692326"}}, "geometry": {"type": "Point", "coordinates": [-133.77019802904428, -27.55761797779423]}}, {"type": "Feature", "properties": {"norad_id": 39030, "name": "GOKTURK 2", "group": "resource", "lat": -61.205520965074264, "lon": -14.393729301622301, "alt_km": 651.940557843127, "timestamp": "2025-12-03T17:47:50.369026+00:00", "meta": {"OBJECT_NAME": "GOKTURK 2", "OBJECT_ID": "2012-073A", "EPOCH": "2025-12-03T13:26:51.287712", "MEAN_MOTION": 14.75270332, "ECCENTRICITY": 8.01e-05, "INCLINATION": 97.6899, "RA_OF_ASC_NODE": 179.665, "ARG_OF_PERICENTER": 95.5639, "MEAN_ANOMALY": 264.5662, "EPHEMERIS_TYPE": 0, "CLASSIFICATION_TYPE": "U", "NORAD_CAT_ID": 39030, "ELEMENT_SET_NO": 999, "REV_AT_EPOCH": 69566, "BSTAR": 0.00015685, "MEAN_MOTION_DOT": 1.014e-05, "MEAN_MOTION_DDOT": 0}, "tle": {"line1": "1 39030U 12073A   25337.56031583  .00001014  00000+0  15685-3 0  9992", "line2": "2 39030  97.6899 179.6650 0000801  95.5639 264.5662 14.75270332695662"}}, "geometry": {"type": "Point", "coordinates": [-14.393729301622301, -61.205520965074264]}}, {"type": "Feature", "properties": {"norad_id": 39084, "name": "LANDSAT 8", "group": "resource", "lat": 63.04414647085189, "lon": 29.45803942493825, "alt_km": 695.623472704543, "timestamp": "2025-12-03T17:47:50.369037+00:00", "meta": {"OBJECT_NAME": "LANDSAT 8", "OBJECT_ID": "2013-008A", "EPOCH": "2025-12-03T10:54:41.068800", "MEAN_MOTION": 14.57125296, "ECCENTRICITY": 0.0001066, "INCLINATION": 98.2084, "RA_OF_ASC_NODE": 45.6647, "ARG_OF_PERICENTER": 88.7475, "MEAN_ANOMALY": 271.3845, "EPHEMERIS_TYPE": 0, "CLASSIFICATION_TYPE": "U", "NORAD_CAT_ID": 39084, "ELEMENT_SET_NO": 999, "REV_AT_EPOCH": 66939, "BSTAR": 0.00016061, "MEAN_MOTION_DOT": 6.79e-06, "MEAN_MOTION_DDOT": 0}, "tle": {"line1": "1 39084U 13008A   25337.45464200  .00000679  00000+0  16061-3 0  9999", "line2": "2 39084  98.2084  45.6647 0001066  88.7475 271.3845 14.57125296669396"}}, "geometry": {"type": "Point", "coordinates": [29.45803942493825, 63.04414647085189]}}, {"type": "Feature", "properties": {"norad_id": 39086, "name": "SARAL", "group": "resource", "lat": 61.23495438825586, "lon": -2.3045410979531393, "alt_km": 774.7049391961928, "timestamp": "2025-12-03T17:47:50.369048+00:00", "meta": {"OBJECT_NAME": "SARAL", "OBJECT_ID": "2013-009A", "EPOCH": "2025-12-03T12:13:21.592416", "MEAN_MOTION": 14.32751786, "ECCENTRICITY": 0.0002626, "INCLINATION": 98.5506, "RA_OF_ASC_NODE": 161.56, "ARG_OF_PERICENTER": 126.3735, "MEAN_ANOMALY": 233.7691, "EPHEMERIS_TYPE": 0, "CLASSIFICATION_TYPE": "U", "NORAD_CAT_ID": 39086, "ELEMENT_SET_NO": 999, "REV_AT_EPOCH": 66758, "BSTAR": 9.9233e-05, "MEAN_MOTION_DOT": 2.27e-06, "MEAN_MOTION_DDOT": 0}, "tle": {"line1": "1 39086U 13009A   25337.50927769  .00000227  00000+0  99233-4 0  9994", "line2": "2 39086  98.5506 161.5600 0002626 126.3735 233.7691 14.32751786667580"}}, "geometry": {"type": "Point", "coordinates": [-2.3045410979531393, 61.23495438825586]}}, {"type": "Feature", "properties": {"norad_id": 39150, "name": "GAOFEN-1", "group": "resource", "lat": -77.26131141419799, "lon": 86.6482341078019, "alt_km": 651.6722133604362, "timestamp": "2025-12-03T17:47:50.369058+00:00", "meta": {"OBJECT_NAME": "GAOFEN-1", "OBJECT_ID": "2013-018A", "EPOCH": "2025-12-03T11:39:15.988608", "MEAN_MOTION": 14.76506897, "ECCENTRICITY": 0.0017651, "INCLINATION": 97.9339, "RA_OF_ASC_NODE": 48.308, "ARG_OF_PERICENTER": 172.0771, "MEAN_ANOMALY": 188.0721, "EPHEMERIS_TYPE": 0, "CLASSIFICATION_TYPE": "U", "NORAD_CAT_ID": 39150, "ELEMENT_SET_NO": 999, "REV_AT_EPOCH": 67936, "BSTAR": 0.00018967, "MEAN_MOTION_DOT": 1.273e-05, "MEAN_MOTION_DDOT": 0}, "tle": {"line1": "1 39150U 13018A   25337.48560172  .00001273  00000+0  18967-3 0  9990", "line2": "2 39150  97.9339  48.3080 0017651 172.0771 188.0721 14.76506897679369"}}, "geometry": {"type": "Point", "coordinates": [86.6482341078019, -77.26131141419799]}}, {"type": "Feature", "properties": {"norad_id": 39160, "name": "VNREDSAT 1", "group": "resource", "lat": -2.2557177157945167, "lon": 33.64638637808737, "alt_km": 680.6040125433901, "timestamp": "2025-12-03T17:47:50.369069+00:00", "meta": {"OBJECT_NAME": "VNREDSAT 1", "OBJECT_ID": "2013-021B", "EPOCH": "2025-12-03T11:15:01.480032", "MEAN_MOTION": 14.64899758, "ECCENTRICITY": 0.0001365, "INCLINATION": 97.9387, "RA_OF_ASC_NODE": 33.0682, "ARG_OF_PERICENTER": 83.915, "MEAN_ANOMALY": 276.2209, "EPHEMERIS_TYPE": 0, "CLASSIFICATION_TYPE": "U", "NORAD_CAT_ID": 39160, "ELEMENT_SET_NO": 999, "REV_AT_EPOCH": 67163, "BSTAR": 0.00021429, "MEAN_MOTION_DOT": 1.1e-05, "MEAN_MOTION_DDOT": 0}, "tle": {"line1": "1 39160U 13021B   25337.46876713  .00001100  00000+0  21429-3 0  9990", "line2": "2 39160  97.9387  33.0682 0001365  83.9150 276.2209 14.64899758671639"}}, "geometry": {"type": "Point", "coordinates": [33.64638637808737, -2.2557177157945167]}}, {"type": "Feature", "properties": {"norad_id": 39227, "name": "ARIRANG-5 (KOMPSAT-5)", "group": "resource", "lat": -55.04533001383602, "lon": -28.860893134782053, "alt_km": 562.776388829504, "timestamp": "2025-12-03T17:47:50.369079+00:00", "meta": {"OBJECT_NAME": "ARIRANG-5 (KOMPSAT-5)", "OBJECT_ID": "2013-042A", "EPOCH": "2025-12-03T11:57:51.957792", "MEAN_MOTION": 15.04502974, "ECCENTRICITY": 0.0004274, "INCLINATION": 97.6156, "RA_OF_ASC_NODE": 161.9344, "ARG_OF_PERICENTER": 81.698, "MEAN_ANOMALY": 278.473, "EPHEMERIS_TYPE": 0, "CLASSIFICATION_TYPE": "U", "NORAD_CAT_ID": 39227, "ELEMENT_SET_NO": 999, "REV_AT_EPOCH": 67443, "BSTAR": 0.00018195, "MEAN_MOTION_DOT": 2.487e-05, "MEAN_MOTION_DDOT": 0}, "tle": {"line1": "1 39227U 13042A   25337.49851803  .00002487  00000+0  18195-3 0  9998", "line2": "2 39227  97.6156 161.9344 0004274  81.6980 278.4730 15.04502974674438"}}, "geometry": {"type": "Point", "coordinates": [-28.860893134782053, -55.04533001383602]}}, {"type": "Feature", "properties": {"norad_id": 39418, "name": "SKYSAT-A", "group": "resource", "lat": 20.993082232253197, "lon": 25.360435443701004, "alt_km": 536.7263100811115, "timestamp": "2025-12-03T17:47:50.369090+00:00", "meta": {"OBJECT_NAME": "SKYSAT-A", "OBJECT_ID": "2013-066C", "EPOCH": "2025-12-03T03:24:15.349248", "MEAN_MOTION": 15.11489448, "ECCENTRICITY": 0.00204425, "INCLINATION": 97.4128, "RA_OF_ASC_NODE": 27.6425, "ARG_OF_PERICENTER": 272.095, "MEAN_ANOMALY": 87.794, "EPHEMERIS_TYPE": 0, "CLASSIFICATION_TYPE": "U", "NORAD_CAT_ID": 39418, "ELEMENT_SET_NO": 999, "REV_AT_EPOCH": 65885, "BSTAR": 0.00030269913, "MEAN_MOTION_DOT": 5.085e-05, "MEAN_MOTION_DDOT": 0}, "tle": {"line1": "1 39418U 13066C   25337.14184432  .00005085  00000+0  30270-3 0  9990", "line2": "2 39418  97.4128  27.6425 0020442 272.0950  87.7940 15.11489448658853"}}, "geometry": {"type": "Point", "coordinates": [25.360435443701004, 20.993082232253197]}}, {"type": "Feature", "properties": {"norad_id": 39419, "name": "DUBAISAT-2", "group": "resource", "lat": -82.40716851071103, "lon": 69.65891092298848, "alt_km": 548.4985267837801, "timestamp": "2025-12-03T17:47:50.369100+00:00", "meta": {"OBJECT_NAME": "DUBAISAT-2", "OBJECT_ID": "2013-066D", "EPOCH": "2025-12-03T13:25:29.912736", "MEAN_MOTION": 15.08212932, "ECCENTRICITY": 0.0011466, "INCLINATION": 97.444, "RA_OF_ASC_NODE": 328.2516, "ARG_OF_PERICENTER": 355.4169, "MEAN_ANOMALY": 4.6952, "EPHEMERIS_TYPE": 0, "CLASSIFICATION_TYPE": "U", "NORAD_CAT_ID": 39419, "ELEMENT_SET_NO": 999, "REV_AT_EPOCH": 65688, "BSTAR": 0.00042365, "MEAN_MOTION_DOT": 6.505e-05, "MEAN_MOTION_DDOT": 0}, "tle": {"line1": "1 39419U 13066D   25337.55937399  .00006505  00000+0  42365-3 0  9990", "line2": "2 39419  97.4440 328.2516 0011466 355.4169   4.6952 15.08212932656886"}}, "geometry": {"type": "Point", "coordinates": [69.65891092298848, -82.40716851071103]}}]}